TEVEL2-7                
1 63238U 25052AE  26068.66113295  .00019244  00000+0  69668-3 0  9998
2 63238  97.4054 324.3041 0008105 124.6830 235.5175 15.28414096 54803
STARLINK-36474          
1 67353U 26003V   26068.52237974  .00041766  00000+0  15175-2 0  9990
2 67353  42.9993 228.4102 0000732 250.2873 109.7900 15.27605333  8795
